{
  "type": "FeatureCollection",
  "features": [
    {
      "type": "Feature",
      "properties": {
        "norad_id": 38091,
        "name": "BEIDOU-2 G5 (C05)",
        "group": "gnss",
        "lat": -2.8066072411430674,
        "lon": -45.14382432349869,
        "alt_km": 35734.68932270051,
        "timestamp": "2025-12-12T11:38:31.653884+00:00",
        "meta_object_name": "BEIDOU-2 G5 (C05)",
        "meta_object_id": "2012-008A",
        "meta_epoch": "2025-12-12T03:29:14.476416",
        "meta_mean_motion": 1.00275381,
        "meta_eccentricity": 0.0012583,
        "meta_inclination": 3.1081,
        "meta_ra_of_asc_node": 70.7123,
        "meta_arg_of_pericenter": 227.2243,
        "meta_mean_anomaly": 254.2507,
        "meta_ephemeris_type": 0,
        "meta_classification_type": "U",
        "meta_norad_cat_id": 38091,
        "meta_element_set_no": 999,
        "meta_rev_at_epoch": 5049,
        "meta_bstar": 0,
        "meta_mean_motion_dot": 6.5e-07,
        "meta_mean_motion_ddot": 0,
        "tle_line1": "1 38091U 12008A   25346.14530644  .00000065  00000+0  00000+0 0  9998",
        "tle_line2": "2 38091   3.1081  70.7123 0012583 227.2243 254.2507  1.00275381 50497"
      },
      "geometry": {
        "type": "Point",
        "coordinates": [
          -45.14382432349869,
          -2.8066072411430674
        ]
      }
    },
    {
      "type": "Feature",
      "properties": {
        "norad_id": 38250,
        "name": "BEIDOU-2 M3 (C11)",
        "group": "gnss",
        "lat": 52.94043451972083,
        "lon": 67.52169155218739,
        "alt_km": 21588.959473075425,
        "timestamp": "2025-12-12T11:38:31.653896+00:00",
        "meta_object_name": "BEIDOU-2 M3 (C11)",
        "meta_object_id": "2012-018A",
        "meta_epoch": "2025-12-09T02:31:53.071968",
        "meta_mean_motion": 1.86229533,
        "meta_eccentricity": 0.00244707,
        "meta_inclination": 55.9232,
        "meta_ra_of_asc_node": 311.2798,
        "meta_arg_of_pericenter": 273.7022,
        "meta_mean_anomaly": 86.0063,
        "meta_ephemeris_type": 0,
        "meta_classification_type": "U",
        "meta_norad_cat_id": 38250,
        "meta_element_set_no": 999,
        "meta_rev_at_epoch": 9240,
        "meta_bstar": 0,
        "meta_mean_motion_dot": -7.5e-07,
        "meta_mean_motion_ddot": 0,
        "tle_line1": "1 38250U 12018A   25343.10547537 -.00000075  00000+0  00000+0 0  9990",
        "tle_line2": "2 38250  55.9232 311.2798 0024470 273.7022  86.0063  1.86229533 92404"
      },
      "geometry": {
        "type": "Point",
        "coordinates": [
          67.52169155218739,
          52.94043451972083
        ]
      }
    },
    {
      "type": "Feature",
      "properties": {
        "norad_id": 38251,
        "name": "BEIDOU-2 M4 (C12)",
        "group": "gnss",
        "lat": 23.557248345767757,
        "lon": 113.1558062014531,
        "alt_km": 21550.920066495073,
        "timestamp": "2025-12-12T11:38:31.653907+00:00",
        "meta_object_name": "BEIDOU-2 M4 (C12)",
        "meta_object_id": "2012-018B",
        "meta_epoch": "2025-12-09T00:54:02.015712",
        "meta_mean_motion": 1.86229239,
        "meta_eccentricity": 0.001562,
        "meta_inclination": 55.8247,
        "meta_ra_of_asc_node": 310.5113,
        "meta_arg_of_pericenter": 276.8164,
        "meta_mean_anomaly": 82.9941,
        "meta_ephemeris_type": 0,
        "meta_classification_type": "U",
        "meta_norad_cat_id": 38251,
        "meta_element_set_no": 999,
        "meta_rev_at_epoch": 9240,
        "meta_bstar": 0,
        "meta_mean_motion_dot": -7.4e-07,
        "meta_mean_motion_ddot": 0,
        "tle_line1": "1 38251U 12018B   25343.03752333 -.00000074  00000+0  00000+0 0  9994",
        "tle_line2": "2 38251  55.8247 310.5113 0015620 276.8164  82.9941  1.86229239 92404"
      },
      "geometry": {
        "type": "Point",
        "coordinates": [
          113.1558062014531,
          23.557248345767757
        ]
      }
    },
    {
      "type": "Feature",
      "properties": {
        "norad_id": 38652,
        "name": "SES-5 (EGNOS/PRN 136)",
        "group": "gnss",
        "lat": -0.05533895986169853,
        "lon": -98.96784120413732,
        "alt_km": 35776.87363639577,
        "timestamp": "2025-12-12T11:38:31.653922+00:00",
        "meta_object_name": "SES-5 (EGNOS/PRN 136)",
        "meta_object_id": "2012-036A",
        "meta_epoch": "2025-12-12T03:13:53.443776",
        "meta_mean_motion": 1.00271735,
        "meta_eccentricity": 0.0002178,
        "meta_inclination": 0.0549,
        "meta_ra_of_asc_node": 306.6805,
        "meta_arg_of_pericenter": 317.1282,
        "meta_mean_anomaly": 230.7259,
        "meta_ephemeris_type": 0,
        "meta_classification_type": "U",
        "meta_norad_cat_id": 38652,
        "meta_element_set_no": 999,
        "meta_rev_at_epoch": 4259,
        "meta_bstar": 0,
        "meta_mean_motion_dot": 4.3e-07,
        "meta_mean_motion_ddot": 0,
        "tle_line1": "1 38652U 12036A   25346.13464634  .00000043  00000+0  00000+0 0  9992",
        "tle_line2": "2 38652   0.0549 306.6805 0002178 317.1282 230.7259  1.00271735 42598"
      },
      "geometry": {
        "type": "Point",
        "coordinates": [
          -98.96784120413732,
          -0.05533895986169853
        ]
      }
    },
    {
      "type": "Feature",
      "properties": {
        "norad_id": 38775,
        "name": "BEIDOU-2 M6 (C14)",
        "group": "gnss",
        "lat": -12.29613938006232,
        "lon": 60.75503423369621,
        "alt_km": 21498.846605172363,
        "timestamp": "2025-12-12T11:38:31.653933+00:00",
        "meta_object_name": "BEIDOU-2 M6 (C14)",
        "meta_object_id": "2012-050B",
        "meta_epoch": "2025-12-10T21:30:38.140128",
        "meta_mean_motion": 1.86230804,
        "meta_eccentricity": 0.0011138,
        "meta_inclination": 56.3769,
        "meta_ra_of_asc_node": 69.1285,
        "meta_arg_of_pericenter": 344.7378,
        "meta_mean_anomaly": 15.2504,
        "meta_ephemeris_type": 0,
        "meta_classification_type": "U",
        "meta_norad_cat_id": 38775,
        "meta_element_set_no": 999,
        "meta_rev_at_epoch": 8980,
        "meta_bstar": 0,
        "meta_mean_motion_dot": -5.9e-07,
        "meta_mean_motion_ddot": 0,
        "tle_line1": "1 38775U 12050B   25344.89627477 -.00000059  00000+0  00000+0 0  9999",
        "tle_line2": "2 38775  56.3769  69.1285 0011138 344.7378  15.2504  1.86230804 89803"
      },
      "geometry": {
        "type": "Point",
        "coordinates": [
          60.75503423369621,
          -12.29613938006232
        ]
      }
    },
    {
      "type": "Feature",
      "properties": {
        "norad_id": 38779,
        "name": "GSAT-10 (GAGAN/PRN 128)",
        "group": "gnss",
        "lat": 0.08649131014895976,
        "lon": -20.955643636413978,
        "alt_km": 35795.055253553255,
        "timestamp": "2025-12-12T11:38:31.653945+00:00",
        "meta_object_name": "GSAT-10 (GAGAN/PRN 128)",
        "meta_object_id": "2012-051B",
        "meta_epoch": "2025-12-12T03:36:13.805856",
        "meta_mean_motion": 1.00273129,
        "meta_eccentricity": 0.0002485,
        "meta_inclination": 0.0908,
        "meta_ra_of_asc_node": 266.2921,
        "meta_arg_of_pericenter": 226.2243,
        "meta_mean_anomaly": 85.6406,
        "meta_ephemeris_type": 0,
        "meta_classification_type": "U",
        "meta_norad_cat_id": 38779,
        "meta_element_set_no": 999,
        "meta_rev_at_epoch": 4822,
        "meta_bstar": 0,
        "meta_mean_motion_dot": -1.56e-06,
        "meta_mean_motion_ddot": 0,
        "tle_line1": "1 38779U 12051B   25346.15015979 -.00000156  00000+0  00000+0 0  9991",
        "tle_line2": "2 38779   0.0908 266.2921 0002485 226.2243  85.6406  1.00273129 48221"
      },
      "geometry": {
        "type": "Point",
        "coordinates": [
          -20.955643636413978,
          0.08649131014895976
        ]
      }
    },
    {
      "type": "Feature",
      "properties": {
        "norad_id": 38833,
        "name": "GPS BIIF-3  (PRN 24)",
        "group": "gnss",
        "lat": 52.666644396132774,
        "lon": -104.44173171314242,
        "alt_km": 19788.89134314027,
        "timestamp": "2025-12-12T11:38:31.653957+00:00",
        "meta_object_name": "GPS BIIF-3  (PRN 24)",
        "meta_object_id": "2012-053A",
        "meta_epoch": "2025-12-09T20:38:00.572640",
        "meta_mean_motion": 2.00564945,
        "meta_eccentricity": 0.0175755,
        "meta_inclination": 53.5569,
        "meta_ra_of_asc_node": 151.3565,
        "meta_arg_of_pericenter": 63.953,
        "meta_mean_anomaly": 297.8432,
        "meta_ephemeris_type": 0,
        "meta_classification_type": "U",
        "meta_norad_cat_id": 38833,
        "meta_element_set_no": 999,
        "meta_rev_at_epoch": 9564,
        "meta_bstar": 0,
        "meta_mean_motion_dot": 6.8e-07,
        "meta_mean_motion_ddot": 0,
        "tle_line1": "1 38833U 12053A   25343.85972885  .00000068  00000+0  00000+0 0  9997",
        "tle_line2": "2 38833  53.5569 151.3565 0175755  63.9530 297.8432  2.00564945 95646"
      },
      "geometry": {
        "type": "Point",
        "coordinates": [
          -104.44173171314242,
          52.666644396132774
        ]
      }
    }
  ]
}